NORAD_CAT_ID,OBJECT_NAME,OBJECT_TYPE,EPOCH,MEAN_MOTION,ECCENTRICITY,INCLINATION,RA_OF_ASC_NODE,ARG_OF_PERICENTER,MEAN_ANOMALY,BSTAR,MEAN_MOTION_DOT,MEAN_MOTION_DDOT,TLE_LINE0,TLE_LINE1,TLE_LINE2,SEMIMAJOR_AXIS,PERIOD,APOGEE,PERIGEE,DECAYED
53429.0,STARLINK-4543,PAYLOAD,2024-07-27 08:49:55,15.08836042,0.0001494,53.2165,234.2947,93.6952,266.4211,1.5012e-05,-4.9e-07,0.0,0 STARLINK-4543,1 53429U 22097AT  24209.36800775 -.00000049  00000-0  15012-4 0  9993,2 53429  53.2165 234.2947 0001494  93.6952 266.4211 15.08836042109188,6917.892,95.438,540.791,538.724,0.0
53429.0,STARLINK-4543,PAYLOAD,2024-07-28 10:16:06,15.08837813,0.0001447,53.2166,229.5387,97.0931,263.0225,2.978e-05,1.86e-06,0.0,0 STARLINK-4543,1 53429U 22097AT  24210.42784769  .00000186  00000-0  29780-4 0  9994,2 53429  53.2166 229.5387 0001447  97.0931 263.0225 15.08837813109340,6917.887,95.438,540.753,538.751,0.0
53429.0,STARLINK-4543,PAYLOAD,2024-07-29 10:06:52,15.08841179,0.0001309,53.2152,225.0765,90.1133,270.001,9.4474e-05,1.216e-05,0.0,0 STARLINK-4543,1 53429U 22097AT  24211.42144571  .00001216  00000-0  94474-4 0  9993,2 53429  53.2152 225.0765 0001309  90.1133 270.0010 15.08841179109970,6917.877,95.437,540.647,538.836,0.0
53429.0,STARLINK-4543,PAYLOAD,2024-07-30 05:11:30,15.08839355,0.000131,53.2153,221.508,90.7231,269.3911,8.6213e-05,1.084e-05,0.0,0 STARLINK-4543,1 53429U 22097AT  24212.21632823  .00001084  00000-0  86213-4 0  9998,2 53429  53.2153 221.5080 0001310  90.7231 269.3911 15.08839355109614,6917.882,95.438,540.654,538.841,0.0
53429.0,STARLINK-4543,PAYLOAD,2024-07-30 09:57:40,15.08841009,0.0001345,53.2153,220.6157,87.6098,272.5048,9.578e-05,1.237e-05,0.0,0 STARLINK-4543,1 53429U 22097AT  24212.41504731  .00001237  00000-0  95780-4 0  9995,2 53429  53.2153 220.6157 0001345  87.6098 272.5048 15.08841009110127,6917.877,95.437,540.673,538.812,0.0
53429.0,STARLINK-4543,PAYLOAD,2024-07-30 17:54:35,15.08844256,0.0001366,53.2155,219.1291,88.4632,271.6516,0.00011056,1.472e-05,0.0,0 STARLINK-4543,1 53429U 22097AT  24212.74624489  .00001472  00000-0  11056-3 0  9998,2 53429  53.2155 219.1291 0001366  88.4632 271.6516 15.08844256110179,6917.867,95.437,540.677,538.787,0.0
53429.0,STARLINK-4543,PAYLOAD,2024-07-31 06:37:40,15.08847372,0.0001394,53.2156,216.7501,89.4202,270.695,0.00010266,1.347e-05,0.0,0 STARLINK-4543,1 53429U 22097AT  24213.27616266  .00001347  00000-0  10266-3 0  9994,2 53429  53.2156 216.7501 0001394  89.4202 270.6950 15.08847372109779,6917.858,95.437,540.687,538.759,0.0
53429.0,STARLINK-4543,PAYLOAD,2024-08-01 04:53:04,15.08842593,0.0001387,53.2152,212.5867,89.7912,270.324,6.8458e-05,8.02e-06,0.0,0 STARLINK-4543,1 53429U 22097AT  24214.20352461  .00000802  00000-0  68458-4 0  9994,2 53429  53.2152 212.5867 0001387  89.7912 270.3240 15.08842593109912,6917.872,95.437,540.697,538.778,0.0
53429.0,STARLINK-4543,PAYLOAD,2024-08-01 09:39:13,15.08842881,0.0001389,53.2152,211.6945,89.9178,270.1974,6.6077e-05,7.64e-06,0.0,0 STARLINK-4543,1 53429U 22097AT  24214.40224402  .00000764  00000-0  66077-4 0  9991,2 53429  53.2152 211.6945 0001389  89.9178 270.1974 15.08842881110427,6917.872,95.437,540.697,538.776,0.0
53429.0,STARLINK-4543,PAYLOAD,2024-08-02 04:43:52,15.08836546,0.0001386,53.2157,208.1237,98.0779,262.0371,-2.2982e-05,-6.54e-06,0.0,0 STARLINK-4543,1 53429U 22097AT  24215.19713021 -.00000654  00000-0 -22982-4 0  9995,2 53429  53.2157 208.1237 0001386  98.0779 262.0371 15.08836546110064,6917.891,95.438,540.715,538.797,0.0
53429.0,STARLINK-4543,PAYLOAD,2024-08-02 09:30:01,15.08831821,0.0001353,53.2155,207.2331,93.9337,266.181,-4.1611e-05,-9.5e-06,0.0,0 STARLINK-4543,1 53429U 22097AT  24215.39585430 -.00000950  00000-0 -41611-4 0  9997,2 53429  53.2155 207.2331 0001353  93.9337 266.1810 15.08831821110575,6917.905,95.438,540.706,538.834,0.0
53429.0,STARLINK-4543,PAYLOAD,2024-08-02 20:37:43,15.08836554,0.0001333,53.2157,205.1522,104.0022,256.1118,2.9764e-05,1.86e-06,0.0,0 STARLINK-4543,1 53429U 22097AT  24215.85952960  .00000186  00000-0  29764-4 0  9998,2 53429  53.2157 205.1522 0001333 104.0022 256.1118 15.08836554110645,6917.891,95.438,540.678,538.834,0.0
53429.0,STARLINK-4543,PAYLOAD,2024-08-03 06:10:01,15.0884243,0.0001255,53.2153,203.3684,89.9462,270.1674,7.17e-05,8.53e-06,0.0,0 STARLINK-4543,1 53429U 22097AT  24216.25696558  .00000853  00000-0  71700-4 0  9999,2 53429  53.2153 203.3684 0001255  89.9462 270.1674 15.08842430110229,6917.873,95.437,540.606,538.87,0.0
53429.0,STARLINK-4543,PAYLOAD,2024-08-03 22:03:52,15.08849608,0.0001465,53.217,200.3999,105.6602,254.4552,3.8731e-05,3.29e-06,0.0,0 STARLINK-4543,1 53429U 22097AT  24216.91936009  .00000329  00000-0  38731-4 0  9995,2 53429  53.2170 200.3999 0001465 105.6602 254.4552 15.08849608110807,6917.851,95.437,540.729,538.703,0.0
53429.0,STARLINK-4543,PAYLOAD,2024-08-04 06:00:49,15.08833503,0.0001532,53.2173,198.9106,107.356,252.76,7.7493e-05,9.45e-06,0.0,0 STARLINK-4543,1 53429U 22097AT  24217.25057152  .00000945  00000-0  77493-4 0  9998,2 53429  53.2173 198.9106 0001532 107.3560 252.7600 15.08833503110373,6917.9,95.438,540.825,538.705,0.0
53429.0,STARLINK-4543,PAYLOAD,2024-08-04 15:33:07,15.08847454,0.0001325,53.2164,197.1245,90.1468,269.9676,0.00016968,2.414e-05,0.0,0 STARLINK-4543,1 53429U 22097AT  24217.64800059  .00002414  00000-0  16968-3 0  9995,2 53429  53.2164 197.1245 0001325  90.1468 269.9676 15.08847454110434,6917.858,95.437,540.639,538.806,0.0
53429.0,STARLINK-4543,PAYLOAD,2024-08-05 05:51:36,15.08841301,0.0001663,53.2173,194.4527,106.4125,253.705,3.2754e-05,2.33e-06,0.0,0 STARLINK-4543,1 53429U 22097AT  24218.24416932  .00000233  00000-0  32754-4 0  9994,2 53429  53.2173 194.4527 0001663 106.4125 253.7050 15.08841301110525,6917.876,95.437,540.892,538.591,0.0
53429.0,STARLINK-4543,PAYLOAD,2024-08-06 04:07:01,15.088237,0.0001589,53.2173,190.289,105.9891,254.1276,2.0531e-05,3.9e-07,0.0,0 STARLINK-4543,1 53429U 22097AT  24219.17154216  .00000039  00000-0  20531-4 0  9995,2 53429  53.2173 190.2890 0001589 105.9891 254.1276 15.08823700110666,6917.93,95.439,540.894,538.696,0.0
53429.0,STARLINK-4543,PAYLOAD,2024-08-06 07:17:47,15.0882487,0.0001346,53.2163,189.6905,92.0847,268.03,-5.7366e-05,-1.2e-05,0.0,0 STARLINK-4543,1 53429U 22097AT  24219.30402487 -.00001200  00000-0 -57366-4 0  9995,2 53429  53.2163 189.6905 0001346  92.0847 268.0300 15.08824870111169,6917.927,95.439,540.723,538.86,0.0
53429.0,STARLINK-4543,PAYLOAD,2024-08-07 02:22:24,15.08839701,0.0001332,53.2155,186.1237,88.5376,271.5769,0.00011055,1.472e-05,0.0,0 STARLINK-4543,1 53429U 22097AT  24220.09889286  .00001472  00000-0  11055-3 0  9992,2 53429  53.2155 186.1237 0001332  88.5376 271.5769 15.08839701110809,6917.881,95.438,540.668,538.825,0.0
53429.0,STARLINK-4543,PAYLOAD,2024-08-07 05:33:10,15.08847972,0.0001497,53.2162,185.5293,80.7721,279.3441,0.00011675,1.571e-05,0.0,0 STARLINK-4543,1 53429U 22097AT  24220.23136901  .00001571  00000-0  11675-3 0  9995,2 53429  53.2162 185.5293 0001497  80.7721 279.3441 15.08847972110826,6917.856,95.437,540.757,538.685,0.0
53429.0,STARLINK-4543,PAYLOAD,2024-08-08 03:48:34,15.08836077,0.0001362,53.2159,181.36,91.2904,268.8244,0.00018948,2.729e-05,0.0,0 STARLINK-4543,1 53429U 22097AT  24221.15873462  .00002729  00000-0  18948-3 0  9993,2 53429  53.2159 181.3600 0001362  91.2904 268.8244 15.08836077111446,6917.892,95.438,540.7,538.815,0.0
53429.0,STARLINK-4543,PAYLOAD,2024-08-08 21:17:49,15.08833343,0.0001507,53.2163,178.0876,95.7463,264.3701,0.0002039,2.958e-05,0.0,0 STARLINK-4543,1 53429U 22097AT  24221.88737682  .00002958  00000-0  20390-3 0  9994,2 53429  53.2163 178.0876 0001507  95.7463 264.3701 15.08833343111070,6917.901,95.438,540.808,538.723,0.0
53429.0,STARLINK-4543,PAYLOAD,2024-08-09 03:39:21,15.08831348,0.0001434,53.216,176.8992,101.1236,258.9918,0.00023112,3.391e-05,0.0,0 STARLINK-4543,1 53429U 22097AT  24222.15233726  .00003391  00000-0  23112-3 0  9992,2 53429  53.2160 176.8992 0001434 101.1236 258.9918 15.08831348111590,6917.907,95.438,540.764,538.78,0.0
53429.0,STARLINK-4543,PAYLOAD,2024-08-10 03:30:08,15.08838391,0.0001339,53.2165,172.4387,100.6026,259.5117,1.8641e-05,9e-08,0.0,0 STARLINK-4543,1 53429U 22097AT  24223.14593390  .00000009  00000-0  18641-4 0  9993,2 53429  53.2165 172.4387 0001339 100.6026 259.5117 15.08838391111267,6917.885,95.438,540.677,538.824,0.0
53429.0,STARLINK-4543,PAYLOAD,2024-08-10 20:59:23,15.08835629,0.0001331,53.2165,169.1681,108.1388,251.9749,8.0678e-06,-1.6e-06,0.0,0 STARLINK-4543,1 53429U 22097AT  24223.87457682 -.00000160  00000-0  80678-5 0  9995,2 53429  53.2165 169.1681 0001331 108.1388 251.9749 15.08835629111856,6917.894,95.438,540.68,538.838,0.0
53429.0,STARLINK-4543,PAYLOAD,2024-08-11 03:20:56,15.08830083,9.84e-05,53.2163,167.9826,94.5937,265.5167,-5.4783e-07,-2.96e-06,0.0,0 STARLINK-4543,1 53429U 22097AT  24224.13954180 -.00000296  00000-0 -54783-6 0  9990,2 53429  53.2163 167.9826 0000984  94.5937 265.5167 15.08830083111418,6917.911,95.438,540.456,539.095,0.0
53429.0,STARLINK-4543,PAYLOAD,2024-08-11 12:53:13,15.08856002,0.0001287,53.2185,166.1953,96.1748,263.9391,0.00014624,2.041e-05,0.0,0 STARLINK-4543,1 53429U 22097AT  24224.53695976  .00002041  00000-0  14624-3 0  9994,2 53429  53.2185 166.1953 0001287  96.1748 263.9391 15.08856002111475,6917.831,95.437,540.587,538.806,0.0
53429.0,STARLINK-4543,PAYLOAD,2024-08-11 20:50:10,15.08837081,0.0002433,53.2166,164.7076,81.4987,278.6281,5.9877e-05,6.65e-06,0.0,0 STARLINK-4543,1 53429U 22097AT  24224.86817932  .00000665  00000-0  59877-4 0  9998,2 53429  53.2166 164.7076 0002433  81.4987 278.6281 15.08837081111523,6917.889,95.438,541.437,538.071,0.0
53429.0,STARLINK-4543,PAYLOAD,2024-08-12 04:47:06,15.08840305,0.000126,53.2164,163.2223,85.1503,274.9633,5.3476e-05,5.63e-06,0.0,0 STARLINK-4543,1 53429U 22097AT  24225.19937586  .00000563  00000-0  53476-4 0  9999,2 53429  53.2164 163.2223 0001260  85.1503 274.9633 15.08840305112053,6917.879,95.438,540.616,538.873,0.0
